{"type": "FeatureCollection", "features": [ {"type": "Feature", "properties": {"norad_id": 66875, "name": "STARLINK-36053", "group": "last-30-days", "lat": 31.910287541507586, "lon": -97.67499816549751, "alt_km": 290.089722850249, "timestamp": "2025-12-12T09:49:07.483444+00:00", "meta": {"OBJECT_NAME": "STARLINK-36053", "OBJECT_ID": "2025-281AD", "EPOCH": "2025-12-12T04:00:01.998720", "MEAN_MOTION": 15.93641353, "ECCENTRICITY": 0.0001572, "INCLINATION": 43.0019, "RA_OF_ASC_NODE": 125.7651, "ARG_OF_PERICENTER": 270.2061, "MEAN_ANOMALY": 266.6998, "EPHEMERIS_TYPE": 0, "CLASSIFICATION_TYPE": "U", "NORAD_CAT_ID": 66875, "ELEMENT_SET_NO": 999, "REV_AT_EPOCH": 134, "BSTAR": -0.0041606, "MEAN_MOTION_DOT": -0.01554419, "MEAN_MOTION_DDOT": 0.00068846}, "tle": {"line1": "1 66875U 25281AD  25346.16668980 -.01554419  68846-3 -41606-2 0  9999", "line2": "2 66875  43.0019 125.7651 0001572 270.2061 266.6998 15.93641353  1345"}}, "geometry": {"type": "Point", "coordinates": [-97.67499816549751, 31.910287541507586]}}, {"type": "Feature", "properties": {"norad_id": 66876, "name": "STARLINK-35702", "group": "last-30-days", "lat": 34.25584326211794, "lon": -102.68713715808917, "alt_km": 290.03506700635535, "timestamp": "2025-12-12T09:49:07.483455+00:00", "meta": {"OBJECT_NAME": "STARLINK-35702", "OBJECT_ID": "2025-281AE", "EPOCH": "2025-12-12T04:00:01.998720", "MEAN_MOTION": 15.93565789, "ECCENTRICITY": 0.000166, "INCLINATION": 43.0018, "RA_OF_ASC_NODE": 125.7778, "ARG_OF_PERICENTER": 271.1209, "MEAN_ANOMALY": 261.0365, "EPHEMERIS_TYPE": 0, "CLASSIFICATION_TYPE": "U", "NORAD_CAT_ID": 66876, "ELEMENT_SET_NO": 999, "REV_AT_EPOCH": 134, "BSTAR": -0.0041704, "MEAN_MOTION_DOT": -0.01551908, "MEAN_MOTION_DDOT": 0.0006859}, "tle": {"line1": "1 66876U 25281AE  25346.16668980 -.01551908  68590-3 -41704-2 0  9995", "line2": "2 66876  43.0018 125.7778 0001660 271.1209 261.0365 15.93565789  1342"}}, "geometry": {"type": "Point", "coordinates": [-102.68713715808917, 34.25584326211794]}}, {"type": "Feature", "properties": {"norad_id": 66877, "name": "ZQ-3 R/B", "group": "last-30-days", "lat": 19.680152774440344, "lon": 72.40784508807158, "alt_km": 1230.6035583975981, "timestamp": "2025-12-12T09:49:07.483466+00:00", "meta": {"OBJECT_NAME": "ZQ-3 R/B", "OBJECT_ID": "2025-282A", "EPOCH": "2025-12-11T15:34:54.456096", "MEAN_MOTION": 14.56097159, "ECCENTRICITY": 0.07931712, "INCLINATION": 56.9524, "RA_OF_ASC_NODE": 61.8427, "ARG_OF_PERICENTER": 218.0596, "MEAN_ANOMALY": 136.1784, "EPHEMERIS_TYPE": 0, "CLASSIFICATION_TYPE": "U", "NORAD_CAT_ID": 66877, "ELEMENT_SET_NO": 999, "REV_AT_EPOCH": 123, "BSTAR": 0.0002423616, "MEAN_MOTION_DOT": 0.01188538, "MEAN_MOTION_DDOT": 7.424357e-06}, "tle": {"line1": "1 66877U 25282A   25345.64924139  .01188538  74244-5  24236-3 0  9990", "line2": "2 66877  56.9524  61.8427 0793171 218.0596 136.1784 14.56097159  1237"}}, "geometry": {"type": "Point", "coordinates": [72.40784508807158, 19.680152774440344]}}, {"type": "Feature", "properties": {"norad_id": 66906, "name": "1998-067XS", "group": "last-30-days", "lat": 9.048173931994883, "lon": 151.30505134103484, "alt_km": 417.1183908911007, "timestamp": "2025-12-12T09:49:07.483476+00:00", "meta": {"OBJECT_NAME": "1998-067XS", "OBJECT_ID": "1998-067XS", "EPOCH": "2025-12-11T19:50:50.396352", "MEAN_MOTION": 15.50491702, "ECCENTRICITY": 0.00036759, "INCLINATION": 51.6297, "RA_OF_ASC_NODE": 146.9447, "ARG_OF_PERICENTER": 198.3211, "MEAN_ANOMALY": 161.7647, "EPHEMERIS_TYPE": 0, "CLASSIFICATION_TYPE": "U", "NORAD_CAT_ID": 66906, "ELEMENT_SET_NO": 999, "REV_AT_EPOCH": 147, "BSTAR": 0.00060264305, "MEAN_MOTION_DOT": 0.00034698, "MEAN_MOTION_DDOT": 0}, "tle": {"line1": "1 66906U 98067XS  25345.82697218  .00034698  00000+0  60264-3 0  9999", "line2": "2 66906  51.6297 146.9447 0003675 198.3211 161.7647 15.50491702  1478"}}, "geometry": {"type": "Point", "coordinates": [151.30505134103484, 9.048173931994883]}}, {"type": "Feature", "properties": {"norad_id": 66907, "name": "1998-067XT", "group": "last-30-days", "lat": 19.66991671655037, "lon": 160.47545650843807, "alt_km": 413.87995906015294, "timestamp": "2025-12-12T09:49:07.483486+00:00", "meta": {"OBJECT_NAME": "1998-067XT", "OBJECT_ID": "1998-067XT", "EPOCH": "2025-12-09T12:07:37.114752", "MEAN_MOTION": 15.50864429, "ECCENTRICITY": 0.00048036, "INCLINATION": 51.6307, "RA_OF_ASC_NODE": 158.4423, "ARG_OF_PERICENTER": 208.5081, "MEAN_ANOMALY": 151.5646, "EPHEMERIS_TYPE": 0, "CLASSIFICATION_TYPE": "U", "NORAD_CAT_ID": 66907, "ELEMENT_SET_NO": 999, "REV_AT_EPOCH": 111, "BSTAR": 0.0012921241, "MEAN_MOTION_DOT": 0.00076342, "MEAN_MOTION_DDOT": 0}, "tle": {"line1": "1 66907U 98067XT  25343.50529068  .00076342  00000+0  12921-2 0  9998", "line2": "2 66907  51.6307 158.4423 0004803 208.5081 151.5646 15.50864429  1113"}}, "geometry": {"type": "Point", "coordinates": [160.47545650843807, 19.66991671655037]}}, {"type": "Feature", "properties": {"norad_id": 66908, "name": "1998-067XU", "group": "last-30-days", "lat": 21.22187993570795, "lon": 161.94202773091803, "alt_km": 413.20848775059767, "timestamp": "2025-12-12T09:49:07.483496+00:00", "meta": {"OBJECT_NAME": "1998-067XU", "OBJECT_ID": "1998-067XU", "EPOCH": "2025-12-11T19:47:12.664032", "MEAN_MOTION": 15.51346926, "ECCENTRICITY": 0.00046963, "INCLINATION": 51.6299, "RA_OF_ASC_NODE": 146.928, "ARG_OF_PERICENTER": 220.0254, "MEAN_ANOMALY": 140.039, "EPHEMERIS_TYPE": 0, "CLASSIFICATION_TYPE": "U", "NORAD_CAT_ID": 66908, "ELEMENT_SET_NO": 999, "REV_AT_EPOCH": 147, "BSTAR": 0.0013269788, "MEAN_MOTION_DOT": 0.00079814, "MEAN_MOTION_DDOT": 0}, "tle": {"line1": "1 66908U 98067XU  25345.82445213  .00079814  00000+0  13270-2 0  9990", "line2": "2 66908  51.6299 146.9280 0004696 220.0254 140.0390 15.51346926  1474"}}, "geometry": {"type": "Point", "coordinates": [161.94202773091803, 21.22187993570795]}}, {"type": "Feature", "properties": {"norad_id": 66909, "name": "SILVERSAT", "group": "last-30-days", "lat": 22.660445514795722, "lon": 163.33602038720986, "alt_km": 412.573841420427, "timestamp": "2025-12-12T09:49:07.483507+00:00", "meta": {"OBJECT_NAME": "SILVERSAT", "OBJECT_ID": "1998-067XV", "EPOCH": "2025-12-11T19:46:46.158240", "MEAN_MOTION": 15.51450033, "ECCENTRICITY": 0.00045562, "INCLINATION": 51.63, "RA_OF_ASC_NODE": 146.926, "ARG_OF_PERICENTER": 222.0234, "MEAN_ANOMALY": 138.0406, "EPHEMERIS_TYPE": 0, "CLASSIFICATION_TYPE": "U", "NORAD_CAT_ID": 66909, "ELEMENT_SET_NO": 999, "REV_AT_EPOCH": 147, "BSTAR": 0.0013718352, "MEAN_MOTION_DOT": 0.00082864, "MEAN_MOTION_DDOT": 0}, "tle": {"line1": "1 66909U 98067XV  25345.82414535  .00082864  00000+0  13718-2 0  9990", "line2": "2 66909  51.6300 146.9260 0004556 222.0234 138.0406 15.51450033  1471"}}, "geometry": {"type": "Point", "coordinates": [163.33602038720986, 22.660445514795722]}}, {"type": "Feature", "properties": {"norad_id": 66910, "name": "1998-067XW", "group": "last-30-days", "lat": 28.57980446515902, "lon": 169.57387813812392, "alt_km": 411.81828654820856, "timestamp": "2025-12-12T09:49:07.483519+00:00", "meta": {"OBJECT_NAME": "1998-067XW", "OBJECT_ID": "1998-067XW", "EPOCH": "2025-12-12T00:22:58.433376", "MEAN_MOTION": 15.51622834, "ECCENTRICITY": 0.0005377, "INCLINATION": 51.6296, "RA_OF_ASC_NODE": 145.9572, "ARG_OF_PERICENTER": 204.7962, "MEAN_ANOMALY": 155.277, "EPHEMERIS_TYPE": 0, "CLASSIFICATION_TYPE": "U", "NORAD_CAT_ID": 66910, "ELEMENT_SET_NO": 999, "REV_AT_EPOCH": 150, "BSTAR": 0.0012086, "MEAN_MOTION_DOT": 0.00073325, "MEAN_MOTION_DDOT": 0}, "tle": {"line1": "1 66910U 98067XW  25346.01595409  .00073325  00000+0  12086-2 0  9993", "line2": "2 66910  51.6296 145.9572 0005377 204.7962 155.2770 15.51622834  1508"}}, "geometry": {"type": "Point", "coordinates": [169.57387813812392, 28.57980446515902]}}, {"type": "Feature", "properties": {"norad_id": 66911, "name": "1998-067XX", "group": "last-30-days", "lat": 31.171901828472034, "lon": 172.6367193843304, "alt_km": 410.434056792561, "timestamp": "2025-12-12T09:49:07.483529+00:00", "meta": {"OBJECT_NAME": "1998-067XX", "OBJECT_ID": "1998-067XX", "EPOCH": "2025-12-12T03:27:33.882624", "MEAN_MOTION": 15.51877198, "ECCENTRICITY": 0.0005044, "INCLINATION": 51.6295, "RA_OF_ASC_NODE": 145.3134, "ARG_OF_PERICENTER": 206.7982, "MEAN_ANOMALY": 153.2747, "EPHEMERIS_TYPE": 0, "CLASSIFICATION_TYPE": "U", "NORAD_CAT_ID": 66911, "ELEMENT_SET_NO": 999, "REV_AT_EPOCH": 151, "BSTAR": 0.0015038, "MEAN_MOTION_DOT": 0.00092403, "MEAN_MOTION_DDOT": 0}, "tle": {"line1": "1 66911U 98067XX  25346.14414216  .00092403  00000+0  15038-2 0  9992", "line2": "2 66911  51.6295 145.3134 0005044 206.7982 153.2747 15.51877198  1519"}}, "geometry": {"type": "Point", "coordinates": [172.6367193843304, 31.171901828472034]}}, {"type": "Feature", "properties": {"norad_id": 66912, "name": "1998-067XY", "group": "last-30-days", "lat": 16.139786412846078, "lon": 157.29309706751351, "alt_km": 415.02888089952194, "timestamp": "2025-12-12T09:49:07.483539+00:00", "meta": {"OBJECT_NAME": "1998-067XY", "OBJECT_ID": "1998-067XY", "EPOCH": "2025-12-11T19:48:45.131904", "MEAN_MOTION": 15.51001955, "ECCENTRICITY": 0.00047052, "INCLINATION": 51.6304, "RA_OF_ASC_NODE": 146.936, "ARG_OF_PERICENTER": 217.5082, "MEAN_ANOMALY": 142.5579, "EPHEMERIS_TYPE": 0, "CLASSIFICATION_TYPE": "U", "NORAD_CAT_ID": 66912, "ELEMENT_SET_NO": 999, "REV_AT_EPOCH": 146, "BSTAR": 0.00099420433, "MEAN_MOTION_DOT": 0.0005879, "MEAN_MOTION_DDOT": 0}, "tle": {"line1": "1 66912U 98067XY  25345.82552236  .00058790  00000+0  99420-3 0  9991", "line2": "2 66912  51.6304 146.9360 0004705 217.5082 142.5579 15.51001955  1461"}}, "geometry": {"type": "Point", "coordinates": [157.29309706751351, 16.139786412846078]}}]}